IRIDIUM 921 [-]         
1 24873U 97034E   24097.37260903  .00020437  00000+0  61113-3 0  9999
2 24873  86.3837 323.5504 0005203 137.1720 222.9937 15.34435025464150
IRIDIUM 26 [-]          
1 24903U 97043A   24097.50364124  .00000433  00000+0  14169-3 0  9991
2 24903  86.3906 293.8571 0002309  91.1404 269.0058 14.36267526394042
IRIDIUM 22 [-]          
1 24907U 97043E   24097.29475781  .00000398  00000+0  13262-3 0  9996
2 24907  86.3914 297.1272 0002052  90.4007 269.7424 14.35160572394097
DUMMY MASS 1 [-]        
1 24925U 97048A   24097.14894949  .00000422  00000+0  44981-4 0  9997
2 24925  86.3368 337.2891 0004524 248.1448 111.9295 14.86124010440202
DUMMY MASS 2 [-]        
1 24926U 97048B   24097.37591211  .00000408  00000+0  43632-4 0  9995
2 24926  86.3370 338.7140 0005224 264.0035  96.0593 14.85883154440020
IRIDIUM 29 [-]          
1 24944U 97051A   24097.59901473  .00000371  00000+0  12201-3 0  9994
2 24944  86.3960 326.9358 0001904  90.6324 269.5091 14.35620356390617
IRIDIUM 33 [-]          
1 24946U 97051C   24097.34993524  .00000252  00000+0  82717-4 0  9995
2 24946  86.3875 326.2970 0009897  69.2611 290.9645 14.34302731390118
IRIDIUM 28 [-]          
1 24948U 97051E   24097.58062867  .00000360  00000+0  11591-3 0  9991
2 24948  86.3961 324.7094 0002557  86.0602 274.0888 14.36569179391148
